SUOMI NPP               
1 37849U 11061A   26133.94325039  .00000048  00000+0  43790-4 0  9998
2 37849  98.7942  75.0565 0002827  72.6916 287.4570 14.19509851753584
YAOGAN-12               
1 37875U 11066B   26133.97915999  .00004426  00000+0  17390-3 0  9995
2 37875  97.1180 174.1620 0009482 358.7297   1.3917 15.26140959806820
BEIDOU-2 M4             
1 38251U 12018B   26132.68171406 -.00000040  00000+0  00000+0 0  9991
2 38251  55.6900 305.2883 0010954 282.0858  77.7844  1.86229765 95284
ARIRANG-3 (KOMPSAT-3)   
1 38338U 12025B   26133.95387723  .00000247  00000+0  58343-4 0  9993
2 38338  98.1157  92.0103 0004492 209.7616 150.3331 14.62174841746341
METOP-B                 
1 38771U 12049A   26133.83853506  .00000062  00000+0  48177-4 0  9993
2 38771  98.6527 186.0187 0003524  90.5610 269.5971 14.21422790708388
SJ-9A                   
1 38860U 12056A   26133.87738814  .00000731  00000+0  90522-4 0  9992
2 38860  97.6690 107.0773 0025964  13.9500 346.2427 14.85397237694492
COSMOS 2484 (RODNIK-S 6)
1 39059U 13001C   26133.93626510 -.00000024  00000+0 -24506-3 0  9995
2 39059  82.5018 243.1844 0027550 108.6706 251.7368 12.42938054604308
SARAL                   
1 39086U 13009A   26133.96343501  .00000062  00000+0  38694-4 0  9996
2 39086  98.5561 320.9640 0002579  50.7429 309.3984 14.32847321690709
STRAND-1                
1 39090U 13009E   26133.45373878  .00000176  00000+0  73686-4 0  9991
2 39090  98.3916 314.5447 0008165 343.0038  17.0874 14.37141977692073
BRITE-AUSTRIA           
1 39091U 13009F   26133.45170535  .00000103  00000+0  49498-4 0  9991
2 39091  98.3988 313.7488 0009898 350.9654   9.1353 14.36527680692065
GAOFEN-1                
1 39150U 13018A   26133.97603738  .00000440  00000+0  70312-4 0  9993
2 39150  97.9105 206.7363 0017518  21.1851 339.0081 14.76537007703192
NEE-01 PEGASO           
1 39151U 13018B   26133.36122948  .00001488  00000+0  14717-3 0  9995
2 39151  98.1178 276.3748 0011280 279.5915  80.4029 14.93483981705502
PROBA-V                 
1 39159U 13021A   26133.53895398  .00000042  00000+0  36399-4 0  9998
2 39159  98.3571 113.8602 0003214 222.2044 137.8888 14.23589391676185
ARIRANG-5 (KOMPSAT-5)   
1 39227U 13042A   26133.98070086  .00001211  00000+0  90885-4 0  9994
2 39227  97.6221 321.1618 0001981 236.8866 123.2170 15.04489953698717
GONETS-M 5              
1 39249U 13048A   26133.90376918 -.00000040  00000+0 -35716-3 0  9991
2 39249  82.4862   4.7584 0015801 290.3144  69.6237 12.42890564574623
GONETS-M 7              
1 39251U 13048C   26133.94784929 -.00000071  00000+0 -58428-3 0  9992
2 39251  82.4930   7.6348 0016624 291.4663  68.4644 12.42913233574587
FENGYUN 3C              
1 39260U 13052A   26133.90837880  .00000037  00000+0  40006-4 0  9992
2 39260  98.4963 109.3617 0015664 119.6047 240.6690 14.15746676653714
CASSIOPE                
1 39265U 13055A   26133.94854720  .00022703 -62640-6  25849-3 0  9993
2 39265  80.9124 108.2044 0301020 177.1740 183.1291 15.22618664662452
APRIZESAT 7             
1 39416U 13066A   26133.40287564  .00000865  00000+0  91271-4 0  9992
2 39416  97.7689  87.1297 0035035 328.9994  30.9157 14.91481972676049
ZACUBE-1 (TSHEPISOSAT)  
1 39417U 13066B   26133.87678758  .00003054  00000+0  24041-3 0  9996
2 39417  97.8119  96.0275 0041751   8.5716 351.6211 15.00914347675589
APRIZESAT 8             
1 39425U 13066K   26133.43383158  .00000709  00000+0  82703-4 0  9998
2 39425  97.8203  81.3936 0047034  41.7715 318.7077 14.87574748674507
