OBJECT_NAME,OBJECT_ID,EPOCH,MEAN_MOTION,ECCENTRICITY,INCLINATION,RA_OF_ASC_NODE,ARG_OF_PERICENTER,MEAN_ANOMALY,EPHEMERIS_TYPE,CLASSIFICATION_TYPE,NORAD_CAT_ID,ELEMENT_SET_NO,REV_AT_EPOCH,BSTAR,MEAN_MOTION_DOT,MEAN_MOTION_DDOT
SUOMI NPP,2011-061A,2026-05-13T22:38:16.833696,14.19509851,.00028275,98.7942,75.0565,72.6916,287.4570,0,U,37849,999,75358,.43790104E-4,.48E-6,0
YAOGAN-12,2011-066B,2026-05-13T23:29:59.423136,15.26140959,.00094826,97.1180,174.1620,358.7297,1.3917,0,U,37875,999,80682,.17390047E-3,.4426E-4,0
BEIDOU-2 M4,2012-018B,2026-05-12T16:21:40.094784,1.86229765,.00109546,55.6900,305.2883,282.0858,77.7844,0,U,38251,999,9528,0,-.4E-6,0
ARIRANG-3 (KOMPSAT-3),2012-025B,2026-05-13T22:53:34.992672,14.62174841,.00044929,98.1157,92.0103,209.7616,150.3331,0,U,38338,999,74634,.58343408E-4,.247E-5,0
METOP-B,2012-049A,2026-05-13T20:07:29.429184,14.21422790,.00035246,98.6527,186.0187,90.5610,269.5971,0,U,38771,999,70838,.48177323E-4,.62E-6,0
SJ-9A,2012-056A,2026-05-13T21:03:26.335296,14.85397237,.00259642,97.6690,107.0773,13.9500,346.2427,0,U,38860,999,69449,.90522043E-4,.731E-5,0
COSMOS 2484 (RODNIK-S 6),2013-001C,2026-05-13T22:28:13.304640,12.42938054,.00275502,82.5018,243.1844,108.6706,251.7368,0,U,39059,999,60430,-.24505708E-3,-.24E-6,0
SARAL,2013-009A,2026-05-13T23:07:20.784864,14.32847321,.00025794,98.5561,320.9640,50.7429,309.3984,0,U,39086,999,69070,.386941E-4,.62E-6,0
STRAND-1,2013-009E,2026-05-13T10:53:23.030592,14.37141977,.00081659,98.3916,314.5447,343.0038,17.0874,0,U,39090,999,69207,.73686484E-4,.176E-5,0
BRITE-AUSTRIA,2013-009F,2026-05-13T10:50:27.342240,14.36527680,.00098989,98.3988,313.7488,350.9654,9.1353,0,U,39091,999,69206,.49497909E-4,.103E-5,0
GAOFEN-1,2013-018A,2026-05-13T23:25:29.629632,14.76537007,.00175187,97.9105,206.7363,21.1851,339.0081,0,U,39150,999,70319,.70311651E-4,.44E-5,0
NEE-01 PEGASO,2013-018B,2026-05-13T08:40:10.227072,14.93483981,.00112806,98.1178,276.3748,279.5915,80.4029,0,U,39151,999,70550,.14717258E-3,.1488E-4,0
PROBA-V,2013-021A,2026-05-13T12:56:05.623872,14.23589391,.0003214,98.3571,113.8602,222.2044,137.8888,0,U,39159,999,67618,.36399186E-4,.42E-6,0
ARIRANG-5 (KOMPSAT-5),2013-042A,2026-05-13T23:32:12.554304,15.04489953,.00019815,97.6221,321.1618,236.8866,123.2170,0,U,39227,999,69871,.9088474E-4,.1211E-4,0
GONETS-M 5,2013-048A,2026-05-13T21:41:25.657152,12.42890564,.00158011,82.4862,4.7584,290.3144,69.6237,0,U,39249,999,57462,-.3571644E-3,-.4E-6,0
GONETS-M 7,2013-048C,2026-05-13T22:44:54.178656,12.42913233,.00166241,82.4930,7.6348,291.4663,68.4644,0,U,39251,999,57458,-.58428444E-3,-.71E-6,0
FENGYUN 3C,2013-052A,2026-05-13T21:48:03.928320,14.15746676,.00156641,98.4963,109.3617,119.6047,240.6690,0,U,39260,999,65371,.40005732E-4,.37E-6,0
CASSIOPE,2013-055A,2026-05-13T22:45:54.478080,15.22618664,.030102,80.9124,108.2044,177.1740,183.1291,0,U,39265,999,66245,.25849499E-3,.22703E-3,-.626404E-6
APRIZESAT 7,2013-066A,2026-05-13T09:40:08.455296,14.91481972,.00350354,97.7689,87.1297,328.9994,30.9157,0,U,39416,999,67604,.91270966E-4,.865E-5,0
ZACUBE-1 (TSHEPISOSAT),2013-066B,2026-05-13T21:02:34.446912,15.00914347,.00417511,97.8119,96.0275,8.5716,351.6211,0,U,39417,999,67558,.24041277E-3,.3054E-4,0
APRIZESAT 8,2013-066K,2026-05-13T10:24:43.048512,14.87574748,.00470344,97.8203,81.3936,41.7715,318.7077,0,U,39425,999,67450,.82703188E-4,.709E-5,0
